COMMENT,ORIGINATOR,NORAD_CAT_ID,OBJECT_NAME,OBJECT_TYPE,CLASSIFICATION_TYPE,INTLDES,EPOCH,EPOCH_MICROSECONDS,MEAN_MOTION,ECCENTRICITY,INCLINATION,RA_OF_ASC_NODE,ARG_OF_PERICENTER,MEAN_ANOMALY,EPHEMERIS_TYPE,ELEMENT_SET_NO,REV_AT_EPOCH,BSTAR,MEAN_MOTION_DOT,MEAN_MOTION_DDOT,FILE,TLE_LINE0,TLE_LINE1,TLE_LINE2,OBJECT_ID,OBJECT_NUMBER,SEMIMAJOR_AXIS,PERIOD,APOGEE,PERIGEE,DECAYED
"GENERATED VIA SPACETRACK.ORG API","18 SPCS","55094","SPACEBEE-165","PAYLOAD","U","23001CP","2024-01-25 17:40:00","85440","15.32078912","0.0010153","97.4449","90.1674","303.5983","56.4288","0","999","5902","0.0012155","0.00037769","0","4171361","0 SPACEBEE-165","1 55094U 23001CP  24025.73611210  .00037769  00000-0  12155-2 0  9991","2 55094  97.4449  90.1674 0010153 303.5983  56.4288 15.32078912 59027","2023-001CP","55094","6847.748","93.990","476.565","462.660","0"
"GENERATED VIA SPACETRACK.ORG API","18 SPCS","55094","SPACEBEE-165","PAYLOAD","U","23001CP","2024-01-26 03:04:18","24960","15.32110197","0.0010182","97.4447","90.5611","302.2384","57.787","0","999","5908","0.00139","0.00043276","0","4171858","0 SPACEBEE-165","1 55094U 23001CP  24026.12798640  .00043276  00000-0  13900-2 0  9997","2 55094  97.4447  90.5611 0010182 302.2384  57.7870 15.32110197 59082","2023-001CP","55094","6847.654","93.988","476.492","462.547","0"
"GENERATED VIA SPACETRACK.ORG API","18 SPCS","55094","SPACEBEE-165","PAYLOAD","U","23001CP","2024-01-26 17:10:43","638240","15.3215084","0.0010136","97.4445","91.1519","300.0796","59.944","0","999","5917","0.0011905","0.0003707","0","4172126","0 SPACEBEE-165","1 55094U 23001CP  24026.71578285  .00037070  00000-0  11905-2 0  9991","2 55094  97.4445  91.1519 0010136 300.0796  59.9440 15.32150840 59172","2023-001CP","55094","6847.533","93.986","476.339","462.458","0"
"GENERATED VIA SPACETRACK.ORG API","18 SPCS","55094","SPACEBEE-165","PAYLOAD","U","23001CP","2024-01-27 04:09:02","564640","15.32188198","0.0010126","97.4443","91.6112","299.1029","60.9198","0","999","5924","0.0012883","0.00040185","0","4172745","0 SPACEBEE-165","1 55094U 23001CP  24027.17294635  .00040185  00000-0  12883-2 0  9993","2 55094  97.4443  91.6112 0010126 299.1029  60.9198 15.32188198 59247","2023-001CP","55094","6847.422","93.983","476.221","462.353","0"
"GENERATED VIA SPACETRACK.ORG API","18 SPCS","55094","SPACEBEE-165","PAYLOAD","U","23001CP","2024-01-27 16:41:23","92224","15.32224422","0.0010106","97.4443","92.1368","297.1368","62.8842","0","999","5932","0.0011289","0.0003522","0","4172992","0 SPACEBEE-165","1 55094U 23001CP  24027.69540616  .00035220  00000-0  11289-2 0  9996","2 55094  97.4443  92.1368 0010106 297.1368  62.8842 15.32224422 59325","2023-001CP","55094","6847.314","93.981","476.099","462.259","0"
"GENERATED VIA SPACETRACK.ORG API","18 SPCS","55094","SPACEBEE-165","PAYLOAD","U","23001CP","2024-01-28 03:39:40","206816","15.32258439","0.0010089","97.4439","92.5963","295.3272","64.6924","0","999","5939","0.0012637","0.00039499","0","4173278","0 SPACEBEE-165","1 55094U 23001CP  24028.15254869  .00039499  00000-0  12637-2 0  9990","2 55094  97.4439  92.5963 0010089 295.3272  64.6924 15.32258439 59392","2023-001CP","55094","6847.213","93.979","475.986","462.170","0"
"GENERATED VIA SPACETRACK.ORG API","18 SPCS","55094","SPACEBEE-165","PAYLOAD","U","23001CP","2024-01-28 14:37:56","533440","15.32285932","0.0010073","97.4437","93.056","293.4116","66.6066","0","999","5946","0.001106","0.00034567","0","4173554","0 SPACEBEE-165","1 55094U 23001CP  24028.60968210  .00034567  00000-0  11060-2 0  9992","2 55094  97.4437  93.0560 0010073 293.4116  66.6066 15.32285932 59463","2023-001CP","55094","6847.131","93.977","475.893","462.099","0"
"GENERATED VIA SPACETRACK.ORG API","18 SPCS","55094","SPACEBEE-165","PAYLOAD","U","23001CP","2024-01-28 17:46:01","51680","15.32294483","0.0010068","97.4436","93.1872","292.8563","67.1615","0","999","5948","0.0011064","0.00034589","0","4173840","0 SPACEBEE-165","1 55094U 23001CP  24028.74028995  .00034589  00000-0  11064-2 0  9992","2 55094  97.4436  93.1872 0010068 292.8563  67.1615 15.32294483 59481","2023-001CP","55094","6847.105","93.977","475.864","462.077","0"
"GENERATED VIA SPACETRACK.ORG API","18 SPCS","55094","SPACEBEE-165","PAYLOAD","U","23001CP","2024-01-29 03:10:14","233152","15.32321912","0.0010083","97.4435","93.5811","291.3787","68.6378","0","999","5954","0.0011689","0.00036588","0","4174086","0 SPACEBEE-165","1 55094U 23001CP  24029.13210918  .00036588  00000-0  11689-2 0  9998","2 55094  97.4435  93.5811 0010083 291.3787  68.6378 15.32321912 59543","2023-001CP","55094","6847.024","93.975","475.793","461.985","0"
"GENERATED VIA SPACETRACK.ORG API","18 SPCS","55094","SPACEBEE-165","PAYLOAD","U","23001CP","2024-01-29 14:08:28","729824","15.32356094","0.0010028","97.4435","94.0407","289.6484","70.3676","0","999","5961","0.0011289","0.00035365","0","4174567","0 SPACEBEE-165","1 55094U 23001CP  24029.58922141  .00035365  00000-0  11289-2 0  9993","2 55094  97.4435  94.0407 0010028 289.6484  70.3676 15.32356094 59611","2023-001CP","55094","6846.922","93.973","475.653","461.921","0"
"GENERATED VIA SPACETRACK.ORG API","18 SPCS","55094","SPACEBEE-165","PAYLOAD","U","23001CP","2024-01-30 04:14:46","147200","15.32399212","0.0009942","97.4434","94.6315","287.3471","72.6683","0","999","5970","0.0011425","0.00035841","0","4174871","0 SPACEBEE-165","1 55094U 23001CP  24030.17692300  .00035841  00000-0  11425-2 0  9992","2 55094  97.4434  94.6315 0009942 287.3471  72.6683 15.32399212 59700","2023-001CP","55094","6846.793","93.970","475.466","461.851","0"
"GENERATED VIA SPACETRACK.ORG API","18 SPCS","55094","SPACEBEE-165","PAYLOAD","U","23001CP","2024-01-30 04:14:46","147200","15.32399212","0.0009942","97.4434","94.6315","287.3471","72.6683","0","999","5970","0.0011425","0.00035841","0","4175201","0 SPACEBEE-165","1 55094U 23001CP  24030.17692300  .00035841  00000-0  11425-2 0  9992","2 55094  97.4434  94.6315 0009942 287.3471  72.6683 15.32399212 59700","2023-001CP","55094","6846.793","93.970","475.466","461.851","0"
"GENERATED VIA SPACETRACK.ORG API","18 SPCS","55094","SPACEBEE-165","PAYLOAD","U","23001CP","2024-01-30 16:47:00","485952","15.32435678","0.000988","97.4434","95.1565","285.3823","74.6327","0","999","5978","0.0011186","0.00035126","0","4175464","0 SPACEBEE-165","1 55094U 23001CP  24030.69931118  .00035126  00000-0  11186-2 0  9992","2 55094  97.4434  95.1565 0009880 285.3823  74.6327 15.32435678 59785","2023-001CP","55094","6846.685","93.968","475.314","461.785","0"
"GENERATED VIA SPACETRACK.ORG API","18 SPCS","55094","SPACEBEE-165","PAYLOAD","U","23001CP","2024-01-31 10:01:18","473088","15.32483058","0.0009898","97.4431","95.8787","282.9724","77.0412","0","999","5989","0.0010573","0.00033238","0","4176006","0 SPACEBEE-165","1 55094U 23001CP  24031.41757492  .00033238  00000-0  10573-2 0  9995","2 55094  97.4431  95.8787 0009898 282.9724  77.0412 15.32483058 59896","2023-001CP","55094","6846.544","93.965","475.185","461.632","0"
"GENERATED VIA SPACETRACK.ORG API","18 SPCS","55094","SPACEBEE-165","PAYLOAD","U","23001CP","2024-01-31 10:01:18","473088","15.32483058","0.0009898","97.4431","95.8787","282.9724","77.0412","0","999","5989","0.0010573","0.00033238","0","4176118","0 SPACEBEE-165","1 55094U 23001CP  24031.41757492  .00033238  00000-0  10573-2 0  9995","2 55094  97.4431  95.8787 0009898 282.9724  77.0412 15.32483058 59896","2023-001CP","55094","6846.544","93.965","475.185","461.632","0"
"GENERATED VIA SPACETRACK.ORG API","18 SPCS","55094","SPACEBEE-165","PAYLOAD","U","23001CP","2024-01-31 14:43:23","36448","15.32496259","0.0009897","97.4431","96.0757","282.1943","77.819","0","999","5992","0.0010143","0.00031891","0","4176251","0 SPACEBEE-165","1 55094U 23001CP  24031.61346107  .00031891  00000-0  10143-2 0  9990","2 55094  97.4431  96.0757 0009897 282.1943  77.8190 15.32496259 59922","2023-001CP","55094","6846.504","93.964","475.145","461.593","0"
"GENERATED VIA SPACETRACK.ORG API","18 SPCS","55094","SPACEBEE-165","PAYLOAD","U","23001CP","2024-02-01 12:39:42","585408","15.32554222","0.0009897","97.4428","96.9951","277.7075","82.3043","0","999","6006","0.0010731","0.00033814","0","4176807","0 SPACEBEE-165","1 55094U 23001CP  24032.52757622  .00033814  00000-0  10731-2 0  9999","2 55094  97.4428  96.9951 0009897 277.7075  82.3043 15.32554222 60069","2023-001CP","55094","6846.332","93.961","474.973","461.421","0"
"GENERATED VIA SPACETRACK.ORG API","18 SPCS","55094","SPACEBEE-165","PAYLOAD","U","23001CP","2024-02-01 14:13:43","899744","15.32556604","0.0009906","97.4431","97.061","277.6743","82.3374","0","999","6007","0.0010092","0.0003179","0","4177069","0 SPACEBEE-165","1 55094U 23001CP  24032.59286921  .00031790  00000-0  10092-2 0  9996","2 55094  97.4431  97.0610 0009906 277.6743  82.3374 15.32556604 60073","2023-001CP","55094","6846.325","93.961","474.972","461.408","0"
"GENERATED VIA SPACETRACK.ORG API","18 SPCS","55094","SPACEBEE-165","PAYLOAD","U","23001CP","2024-02-01 14:13:43","899744","15.32556604","0.0009906","97.4431","97.061","277.6743","82.3374","0","999","6007","0.0010092","0.0003179","0","4177080","0 SPACEBEE-165","1 55094U 23001CP  24032.59286921  .00031790  00000-0  10092-2 0  9996","2 55094  97.4431  97.0610 0009906 277.6743  82.3374 15.32556604 60073","2023-001CP","55094","6846.325","93.961","474.972","461.408","0"
"GENERATED VIA SPACETRACK.ORG API","18 SPCS","55094","SPACEBEE-165","PAYLOAD","U","23001CP","2024-02-02 02:45:53","630784","15.32590904","0.0009888","97.443","97.5864","275.6631","84.3483","0","999","6015","0.0010528","0.00033208","0","4177630","0 SPACEBEE-165","1 55094U 23001CP  24033.11520406  .00033208  00000-0  10528-2 0  9994","2 55094  97.4430  97.5864 0009888 275.6631  84.3483 15.32590904 60154","2023-001CP","55094","6846.223","93.959","474.857","461.318","0"
